{
    "links": {
        "self": "http://www.neowsapp.com/rest/v1/neo/3780739?api_key=iIulBulltgU6a56xZRHN4H3l9WmuAYTsLGpBGhQ2"
    },
    "id": "3780739",
    "neo_reference_id": "3780739",
    "name": "(2017 QX1)",
    "designation": "2017 QX1",
    "nasa_jpl_url": "http://ssd.jpl.nasa.gov/sbdb.cgi?sstr=3780739",
    "absolute_magnitude_h": 24.8,
    "estimated_diameter": {
        "kilometers": {
            "estimated_diameter_min": 0.0291443905,
            "estimated_diameter_max": 0.0651688382
        },
        "meters": {
            "estimated_diameter_min": 29.1443904535,
            "estimated_diameter_max": 65.1688382168
        },
        "miles": {
            "estimated_diameter_min": 0.018109479,
            "estimated_diameter_max": 0.0404940262
        },
        "feet": {
            "estimated_diameter_min": 95.6180819754,
            "estimated_diameter_max": 213.8085311752
        }
    },
    "is_potentially_hazardous_asteroid": false,
    "close_approach_data": [
        {
            "close_approach_date": "2017-08-26",
            "close_approach_date_full": "2017-Aug-26 14:17",
            "epoch_date_close_approach": 1503757020000,
            "relative_velocity": {
                "kilometers_per_second": "6.9678548344",
                "kilometers_per_hour": "25084.2774038857",
                "miles_per_hour": "15586.3944790977"
            },
            "miss_distance": {
                "astronomical": "0.0329112208",
                "lunar": "12.8024648912",
                "kilometers": "4923448.530779696",
                "miles": "3059289.0559079648"
            },
            "orbiting_body": "Earth"
        }
    ],
    "orbital_data": {
        "orbit_id": "6",
        "orbit_determination_date": "2017-09-08 06:17:40",
        "first_observation_date": "2017-08-18",
        "last_observation_date": "2017-09-07",
        "data_arc_in_days": 20,
        "observations_used": 47,
        "orbit_uncertainty": "8",
        "minimum_orbit_intersection": ".0107693",
        "jupiter_tisserand_invariant": "3.813",
        "epoch_osculation": "2457985.5",
        "eccentricity": ".464468860478622",
        "semi_major_axis": "1.896608733225774",
        "inclination": ".8524924867826182",
        "ascending_node_longitude": "338.853168644585",
        "orbital_period": "954.0366217000885",
        "perihelion_distance": "1.015693036130596",
        "perihelion_argument": "16.09257197730032",
        "aphelion_distance": "2.777524430320952",
        "perihelion_time": "2458009.953557145805",
        "mean_anomaly": "350.7725968036715",
        "mean_motion": ".3773440052631122",
        "equinox": "J2000",
        "orbit_class": {
            "orbit_class_type": "APO",
            "orbit_class_description": "Near-Earth asteroid orbits which cross the Earth’s orbit similar to that of 1862 Apollo",
            "orbit_class_range": "a (semi-major axis) > 1.0 AU; q (perihelion) < 1.017 AU"
        }
    },
    "is_sentry_object": false
}